INTELSAT 902 (IS-902)   
1 26900U 01039A   26167.53238604 -.00000289  00000+0  00000+0 0  9991
2 26900   6.1158  71.7912 0004343  10.1686 324.3973  1.00272336 90681
INTELSAT 904 (IS-904)   
1 27380U 02007A   26168.08681490 -.00000233  00000+0  00000+0 0  9995
2 27380   6.9204  69.1859 0006492   5.2636 190.6543  1.00270537 51766
DIRECTV 5 (TEMPO 1)     
1 27426U 02023A   26167.62249932 -.00000062  00000+0  00000+0 0  9994
2 27426   4.8769  75.3171 0003287  24.4864 279.0813  1.00271599 88111
INTELSAT 905 (IS-905)   
1 27438U 02027A   26167.63028894  .00000087  00000+0  00000+0 0  9990
2 27438   6.7527  69.8071 0003779  20.8585 263.9150  1.00271139 51352
GALAXY 3C (G-3C)        
1 27445U 02030A   26168.15779825 -.00000158  00000+0  00000+0 0  9997
2 27445   3.7323  77.9783 0001573  31.4504 117.9428  1.00270991 46490
INTELSAT 906 (IS-906)   
1 27513U 02041A   26167.94001175  .00000006  00000+0  00000+0 0  9998
2 27513   5.8020  72.9256 0004604   6.9688 227.8581  1.00272911 87020
GALAXY 13 (HORIZONS-1)  
1 27954U 03044A   26167.72647690  .00000129  00000+0  00000+0 0  9991
2 27954   1.4181  83.8716 0002256 352.8476 299.7915  1.00270809 46567
INTELSAT 10-02          
1 28358U 04022A   26167.66137044 -.00000013  00000+0  00000+0 0  9990
2 28358   0.0133 313.0240 0000200 252.2268 296.7595  1.00271868 80551
DIRECTV 8               
1 28659U 05019A   26168.18064308  .00000000  00000+0  00000+0 0  9996
2 28659   0.0204   1.6232 0002873  91.7781 118.0221  1.00271003 77075
GALAXY 28 (G-28)        
1 28702U 05022A   26167.75083035 -.00000205  00000+0  00000+0 0  9997
2 28702   3.2974  78.9402 0002873   5.2261  64.0630  1.00271160 51971
GALAXY 16 (G-16)        
1 29236U 06023A   26167.66520924 -.00000130  00000+0  00000+0 0  9992
2 29236   0.0174 170.0059 0002459 278.8437 316.5554  1.00276198 72964
DIRECTV 9S              
1 29494U 06043A   26167.66477589 -.00000117  00000+0  00000+0 0  9993
2 29494   2.4200  80.9079 0004870  12.4612 309.6861  1.00270804 51377
GALAXY 17 (G-17)        
1 31307U 07016B   26167.59676734 -.00000210  00000+0  00000+0 0  9999
2 31307   2.9711  79.9074 0004549  17.0716 297.7054  1.00271999 69799
INTELSAT 11 (IS-11)     
1 32253U 07044B   26167.78142796 -.00000253  00000+0  00000+0 0  9995
2 32253   3.5649  78.6734 0002326  90.5395 144.7990  0.99050968 68445
HORIZONS-2              
1 32388U 07063B   26167.52764839 -.00000256  00000+0  00000+0 0  9998
2 32388   2.6009  80.6329 0003733   1.8971 298.4127  1.00268618 67809
DIRECTV 11              
1 32729U 08013A   26167.66520924 -.00000128  00000+0  00000+0 0  9991
2 32729   0.0120 269.2120 0000555  97.1541  38.8642  1.00269758 45583
GALAXY 18 (G-18)        
1 32951U 08024A   26168.21594852  .00000021  00000+0  00000+0 0  9994
2 32951   0.0155  30.4922 0002729  56.0775 133.6467  1.00272399 45858
INTELSAT 25 (IS-25)     
1 33153U 08034A   26167.78056131 -.00000230  00000+0  00000+0 0  9997
2 33153   2.7093  80.3763 0003289  60.4084 168.7263  0.99034973 65681
GALAXY 19 (G-19)        
1 33376U 08045A   26167.66564257 -.00000141  00000+0  00000+0 0  9997
2 33376   0.0375 264.2747 0002426 184.5055 318.7877  1.00271202 64896
FM-5                    
1 35493U 09034A   26168.13892112 -.00000204  00000+0  00000+0 0  9995
2 35493   0.0200 294.2923 0000882   8.9087 286.0483  1.00269115 46645
INTELSAT 14 (IS-14)     
1 36097U 09064A   26167.74727698 -.00000276  00000+0  00000+0 0  9990
2 36097   0.0183 299.4074 0002180 139.5010  50.1276  1.00270182 60608
INTELSAT 15 (IS-15)     
1 36106U 09067A   26167.95442034 -.00000188  00000+0  00000+0 0  9997
2 36106   0.0121 311.4719 0002047 137.7052 244.7718  1.00270326 41229
DIRECTV 12              
1 36131U 09075A   26167.66451589 -.00000105  00000+0  00000+0 0  9996
2 36131   0.0103 112.1390 0000688 253.7384  35.5559  1.00265419 46540
INTELSAT 16 (IS-16)     
1 36397U 10006A   26167.52721507 -.00000246  00000+0  00000+0 0  9997
2 36397   0.0158 311.4266 0001940 154.3895 272.5641  1.00269164 59646
XM-5                    
1 37185U 10053A   26167.66200256 -.00000025  00000+0  00000+0 0  9998
2 37185   0.0649 272.9850 0002962 289.0563 186.0076  1.00269006 57475
INTELSAT 17 (IS-17)     
1 37238U 10065B   26167.76917663 -.00000004  00000+0  00000+0 0  9995
2 37238   0.0062 297.9502 0002600 157.3015 152.6794  1.00271594 53244
INTELSAT 28 (IS-28)     
1 37392U 11016A   26167.74987699 -.00000229  00000+0  00000+0 0  9996
2 37392   1.8056  82.6255 0003610   6.9956  53.6278  1.00269732 53288
INTELSAT 18 (IS-18)     
1 37834U 11056A   26167.72049688  .00000050  00000+0  00000+0 0  9997
2 37834   0.0222 288.1834 0001594 156.3306 259.8456  1.00270842 53809
INTELSAT 22 (IS-22)     
1 38098U 12011A   26167.94777682 -.00000062  00000+0  00000+0 0  9992
2 38098   0.0129  83.4222 0001530  14.6334 220.4496  1.00272290  7189
INTELSAT 19 (IS-19)     
1 38356U 12030A   26167.71772352 -.00000059  00000+0  00000+0 0  9990
2 38356   0.0137   8.8312 0002837  85.2670 235.2581  1.00271029 50449
INTELSAT 20 (IS-20)     
1 38740U 12043A   26167.94447006 -.00000027  00000+0  00000+0 0  9996
2 38740   0.0215  79.6898 0001930  97.6903 136.3347  1.00271141 50746
